KUIPER-00175            
1 67135U 25301C   26008.43618457  .00023798  00000+0  65283-3 0  9992
2 67135  51.8744 356.1735 0002857  92.8246 267.3067 15.37145000  4546
KUIPER-00179            
1 67136U 25301D   26008.44159745  .00019936  00000+0  55672-3 0  9994
2 67136  51.8737 356.2110 0003379 120.0027 240.1295 15.36702725  4654
KUIPER-00181            
1 67137U 25301E   26008.46975002 -.00016838  00000+0 -48103-3 0  9990
2 67137  51.8656 356.3847 0010174 185.7090 174.3781 15.34769935  4632
KUIPER-00183            
1 67138U 25301F   26008.40912903  .00020676  00000+0  61439-3 0  9996
2 67138  51.8633 356.7239 0011133 187.3332 172.7492 15.34677627  4637
KUIPER-00184            
1 67139U 25301G   26008.46882898  .00030943  00000+0  90593-3 0  9993
2 67139  51.8643 356.3770 0009203 184.7869 175.3030 15.34930235  4753
KUIPER-00186            
1 67140U 25301H   26008.45947061  .00033468  00000+0  95412-3 0  9998
2 67140  51.8691 356.3253 0007930 170.4095 189.7043 15.35735864  4476
KUIPER-00187            
1 67141U 25301J   26008.51332266 -.00049947  00000+0 -13996-2 0  9998
2 67141  51.8714 355.9415 0004376 152.3516 207.7704 15.36034743  4481
KUIPER-00188            
1 67142U 25301K   26008.46096744  .00017328  00000+0  50283-3 0  9998
2 67142  51.8704 356.3356 0007587 176.2804 183.8240 15.35580825  4476
KUIPER-00191            
1 67143U 25301L   26008.45805529  .00038976  00000+0  11083-2 0  9993
2 67143  51.8680 356.3153 0006481 168.0860 192.0281 15.35753153  4505
KUIPER-00196            
1 67144U 25301M   26008.44544661  .00020498  00000+0  57599-3 0  9993
2 67144  51.8728 356.2371 0003872 133.3350 226.7959 15.36488282  4472
KUIPER-00204            
1 67145U 25301N   26008.50002314  .00036824  00000+0  12645-2 0  9997
2 67145  51.8775 356.0096 0004814 105.1073 163.6342 15.29769380  4583
KUIPER-00210            
1 67146U 25301P   26008.40773862  .00023040  00000+0  68216-3 0  9992
2 67146  51.8617 356.7126 0010430 192.1812 167.8922 15.34730331  4634
