CCSDS_OMM_VERS = 2.0
CREATION_DATE  = 
ORIGINATOR     = 

OBJECT_NAME    = KUIPER-00175
OBJECT_ID      = 2025-301C
CENTER_NAME    = EARTH
REF_FRAME      = TEME
TIME_SYSTEM    = UTC
MEAN_ELEMENT_THEORY = SGP/SGP4

EPOCH          = 2026-01-08T10:28:06.346848
MEAN_MOTION    = 15.37145000
ECCENTRICITY   = .0002857
INCLINATION    = 51.8744
RA_OF_ASC_NODE = 356.1735
ARG_OF_PERICENTER = 92.8246
MEAN_ANOMALY   = 267.3067

EPHEMERIS_TYPE = 0
CLASSIFICATION_TYPE = U
NORAD_CAT_ID   = 67135
ELEMENT_SET_NO = 999
REV_AT_EPOCH   = 454
BSTAR          = .65283E-3
MEAN_MOTION_DOT = .23798E-3
MEAN_MOTION_DDOT = 0

CCSDS_OMM_VERS = 2.0
CREATION_DATE  = 
ORIGINATOR     = 

OBJECT_NAME    = KUIPER-00179
OBJECT_ID      = 2025-301D
CENTER_NAME    = EARTH
REF_FRAME      = TEME
TIME_SYSTEM    = UTC
MEAN_ELEMENT_THEORY = SGP/SGP4

EPOCH          = 2026-01-08T10:35:54.019680
MEAN_MOTION    = 15.36702725
ECCENTRICITY   = .0003379
INCLINATION    = 51.8737
RA_OF_ASC_NODE = 356.2110
ARG_OF_PERICENTER = 120.0027
MEAN_ANOMALY   = 240.1295

EPHEMERIS_TYPE = 0
CLASSIFICATION_TYPE = U
NORAD_CAT_ID   = 67136
ELEMENT_SET_NO = 999
REV_AT_EPOCH   = 465
BSTAR          = .55672E-3
MEAN_MOTION_DOT = .19936E-3
MEAN_MOTION_DDOT = 0

CCSDS_OMM_VERS = 2.0
CREATION_DATE  = 
ORIGINATOR     = 

OBJECT_NAME    = KUIPER-00181
OBJECT_ID      = 2025-301E
CENTER_NAME    = EARTH
REF_FRAME      = TEME
TIME_SYSTEM    = UTC
MEAN_ELEMENT_THEORY = SGP/SGP4

EPOCH          = 2026-01-08T11:16:26.401728
MEAN_MOTION    = 15.34769935
ECCENTRICITY   = .0010174
INCLINATION    = 51.8656
RA_OF_ASC_NODE = 356.3847
ARG_OF_PERICENTER = 185.7090
MEAN_ANOMALY   = 174.3781

EPHEMERIS_TYPE = 0
CLASSIFICATION_TYPE = U
NORAD_CAT_ID   = 67137
ELEMENT_SET_NO = 999
REV_AT_EPOCH   = 463
BSTAR          = -.48103E-3
MEAN_MOTION_DOT = -.16838E-3
MEAN_MOTION_DDOT = 0

CCSDS_OMM_VERS = 2.0
CREATION_DATE  = 
ORIGINATOR     = 

OBJECT_NAME    = KUIPER-00183
OBJECT_ID      = 2025-301F
CENTER_NAME    = EARTH
REF_FRAME      = TEME
TIME_SYSTEM    = UTC
MEAN_ELEMENT_THEORY = SGP/SGP4

EPOCH          = 2026-01-08T09:49:08.748192
MEAN_MOTION    = 15.34677627
ECCENTRICITY   = .0011133
INCLINATION    = 51.8633
RA_OF_ASC_NODE = 356.7239
ARG_OF_PERICENTER = 187.3332
MEAN_ANOMALY   = 172.7492

EPHEMERIS_TYPE = 0
CLASSIFICATION_TYPE = U
NORAD_CAT_ID   = 67138
ELEMENT_SET_NO = 999
REV_AT_EPOCH   = 463
BSTAR          = .61439E-3
MEAN_MOTION_DOT = .20676E-3
MEAN_MOTION_DDOT = 0

CCSDS_OMM_VERS = 2.0
CREATION_DATE  = 
ORIGINATOR     = 

OBJECT_NAME    = KUIPER-00184
OBJECT_ID      = 2025-301G
CENTER_NAME    = EARTH
REF_FRAME      = TEME
TIME_SYSTEM    = UTC
MEAN_ELEMENT_THEORY = SGP/SGP4

EPOCH          = 2026-01-08T11:15:06.823872
MEAN_MOTION    = 15.34930235
ECCENTRICITY   = .0009203
INCLINATION    = 51.8643
RA_OF_ASC_NODE = 356.3770
ARG_OF_PERICENTER = 184.7869
MEAN_ANOMALY   = 175.3030

EPHEMERIS_TYPE = 0
CLASSIFICATION_TYPE = U
NORAD_CAT_ID   = 67139
ELEMENT_SET_NO = 999
REV_AT_EPOCH   = 475
BSTAR          = .90593E-3
MEAN_MOTION_DOT = .30943E-3
MEAN_MOTION_DDOT = 0

CCSDS_OMM_VERS = 2.0
CREATION_DATE  = 
ORIGINATOR     = 

OBJECT_NAME    = KUIPER-00186
OBJECT_ID      = 2025-301H
CENTER_NAME    = EARTH
REF_FRAME      = TEME
TIME_SYSTEM    = UTC
MEAN_ELEMENT_THEORY = SGP/SGP4

EPOCH          = 2026-01-08T11:01:38.260704
MEAN_MOTION    = 15.35735864
ECCENTRICITY   = .000793
INCLINATION    = 51.8691
RA_OF_ASC_NODE = 356.3253
ARG_OF_PERICENTER = 170.4095
MEAN_ANOMALY   = 189.7043

EPHEMERIS_TYPE = 0
CLASSIFICATION_TYPE = U
NORAD_CAT_ID   = 67140
ELEMENT_SET_NO = 999
REV_AT_EPOCH   = 447
BSTAR          = .95412E-3
MEAN_MOTION_DOT = .33468E-3
MEAN_MOTION_DDOT = 0

CCSDS_OMM_VERS = 2.0
CREATION_DATE  = 
ORIGINATOR     = 

OBJECT_NAME    = KUIPER-00187
OBJECT_ID      = 2025-301J
CENTER_NAME    = EARTH
REF_FRAME      = TEME
TIME_SYSTEM    = UTC
MEAN_ELEMENT_THEORY = SGP/SGP4

EPOCH          = 2026-01-08T12:19:11.077824
MEAN_MOTION    = 15.36034743
ECCENTRICITY   = .0004376
INCLINATION    = 51.8714
RA_OF_ASC_NODE = 355.9415
ARG_OF_PERICENTER = 152.3516
MEAN_ANOMALY   = 207.7704

EPHEMERIS_TYPE = 0
CLASSIFICATION_TYPE = U
NORAD_CAT_ID   = 67141
ELEMENT_SET_NO = 999
REV_AT_EPOCH   = 448
BSTAR          = -.13996E-2
MEAN_MOTION_DOT = -.49947E-3
MEAN_MOTION_DDOT = 0

CCSDS_OMM_VERS = 2.0
CREATION_DATE  = 
ORIGINATOR     = 

OBJECT_NAME    = KUIPER-00188
OBJECT_ID      = 2025-301K
CENTER_NAME    = EARTH
REF_FRAME      = TEME
TIME_SYSTEM    = UTC
MEAN_ELEMENT_THEORY = SGP/SGP4

EPOCH          = 2026-01-08T11:03:47.586816
MEAN_MOTION    = 15.35580825
ECCENTRICITY   = .0007587
INCLINATION    = 51.8704
RA_OF_ASC_NODE = 356.3356
ARG_OF_PERICENTER = 176.2804
MEAN_ANOMALY   = 183.8240

EPHEMERIS_TYPE = 0
CLASSIFICATION_TYPE = U
NORAD_CAT_ID   = 67142
ELEMENT_SET_NO = 999
REV_AT_EPOCH   = 447
BSTAR          = .50283E-3
MEAN_MOTION_DOT = .17328E-3
MEAN_MOTION_DDOT = 0

CCSDS_OMM_VERS = 2.0
CREATION_DATE  = 
ORIGINATOR     = 

OBJECT_NAME    = KUIPER-00191
OBJECT_ID      = 2025-301L
CENTER_NAME    = EARTH
REF_FRAME      = TEME
TIME_SYSTEM    = UTC
MEAN_ELEMENT_THEORY = SGP/SGP4

EPOCH          = 2026-01-08T10:59:35.977056
MEAN_MOTION    = 15.35753153
ECCENTRICITY   = .0006481
INCLINATION    = 51.8680
RA_OF_ASC_NODE = 356.3153
ARG_OF_PERICENTER = 168.0860
MEAN_ANOMALY   = 192.0281

EPHEMERIS_TYPE = 0
CLASSIFICATION_TYPE = U
NORAD_CAT_ID   = 67143
ELEMENT_SET_NO = 999
REV_AT_EPOCH   = 450
BSTAR          = .11083E-2
MEAN_MOTION_DOT = .38976E-3
MEAN_MOTION_DDOT = 0

CCSDS_OMM_VERS = 2.0
CREATION_DATE  = 
ORIGINATOR     = 

OBJECT_NAME    = KUIPER-00196
OBJECT_ID      = 2025-301M
CENTER_NAME    = EARTH
REF_FRAME      = TEME
TIME_SYSTEM    = UTC
MEAN_ELEMENT_THEORY = SGP/SGP4

EPOCH          = 2026-01-08T10:41:26.587104
MEAN_MOTION    = 15.36488282
ECCENTRICITY   = .0003872
INCLINATION    = 51.8728
RA_OF_ASC_NODE = 356.2371
ARG_OF_PERICENTER = 133.3350
MEAN_ANOMALY   = 226.7959

EPHEMERIS_TYPE = 0
CLASSIFICATION_TYPE = U
NORAD_CAT_ID   = 67144
ELEMENT_SET_NO = 999
REV_AT_EPOCH   = 447
BSTAR          = .57599E-3
MEAN_MOTION_DOT = .20498E-3
MEAN_MOTION_DDOT = 0

CCSDS_OMM_VERS = 2.0
CREATION_DATE  = 
ORIGINATOR     = 

OBJECT_NAME    = KUIPER-00204
OBJECT_ID      = 2025-301N
CENTER_NAME    = EARTH
REF_FRAME      = TEME
TIME_SYSTEM    = UTC
MEAN_ELEMENT_THEORY = SGP/SGP4

EPOCH          = 2026-01-08T12:00:01.999296
MEAN_MOTION    = 15.29769380
ECCENTRICITY   = .0004814
INCLINATION    = 51.8775
RA_OF_ASC_NODE = 356.0096
ARG_OF_PERICENTER = 105.1073
MEAN_ANOMALY   = 163.6342

EPHEMERIS_TYPE = 0
CLASSIFICATION_TYPE = U
NORAD_CAT_ID   = 67145
ELEMENT_SET_NO = 999
REV_AT_EPOCH   = 458
BSTAR          = .12645E-2
MEAN_MOTION_DOT = .36824E-3
MEAN_MOTION_DDOT = 0

CCSDS_OMM_VERS = 2.0
CREATION_DATE  = 
ORIGINATOR     = 

OBJECT_NAME    = KUIPER-00210
OBJECT_ID      = 2025-301P
CENTER_NAME    = EARTH
REF_FRAME      = TEME
TIME_SYSTEM    = UTC
MEAN_ELEMENT_THEORY = SGP/SGP4

EPOCH          = 2026-01-08T09:47:08.616768
MEAN_MOTION    = 15.34730331
ECCENTRICITY   = .001043
INCLINATION    = 51.8617
RA_OF_ASC_NODE = 356.7126
ARG_OF_PERICENTER = 192.1812
MEAN_ANOMALY   = 167.8922

EPHEMERIS_TYPE = 0
CLASSIFICATION_TYPE = U
NORAD_CAT_ID   = 67146
ELEMENT_SET_NO = 999
REV_AT_EPOCH   = 463
BSTAR          = .68216E-3
MEAN_MOTION_DOT = .2304E-3
MEAN_MOTION_DDOT = 0

